0 CZ-4 DEB
1 26306U 99057GP  13281.39110573  .00000216  00000-0  86877-4 0   508
2 26306 098.4438 222.6715 0099327 246.9001 238.1549 14.34918196707992
0 CZ-4 DEB
1 26306U 99057GP  13283.69115863  .00000228  00000-0  90787-4 0   519
2 26306 098.4442 224.9214 0099442 239.9726 239.6423 14.34920778708324
0 CZ-4 DEB
1 26306U 99057GP  13285.77135096  .00000225  00000-0  89947-4 0   524
2 26306 098.4448 226.9562 0099526 233.7261 185.3818 14.34921832708627
0 CZ-4 DEB
1 26306U 99057GP  13287.79557054  .00000295  00000-0  11312-3 0   538
2 26306 098.4454 228.9363 0099635 227.6660 201.9710 14.34923621708917
0 CZ-4 DEB
1 26306U 99057GP  13290.79210187  .00000317  00000-0  12022-3 0   540
2 26306 098.4460 231.8678 0099767 218.6818 201.3066 14.34925831709348
0 CZ-4 DEB
1 26306U 99057GP  13292.81329605  .00000366  00000-0  13665-3 0   550
2 26306 098.4461 233.8454 0099892 212.6335 202.2959 14.34927078709638
0 CZ-4 DEB
1 26306U 99057GP  13295.11703859  .00000366  00000-0  13652-3 0   560
2 26306 098.4462 236.0996 0100033 205.7484 222.8631 14.34929040709965
